[{"OBJECT_NAME":"FENGYUN 3C","OBJECT_ID":"2013-052A","EPOCH":"2026-03-09T23:00:17.582976","MEAN_MOTION":14.15729116,"ECCENTRICITY":0.00138136,"INCLINATION":98.4893,"RA_OF_ASC_NODE":47.4396,"ARG_OF_PERICENTER":312.3692,"MEAN_ANOMALY":47.6312,"EPHEMERIS_TYPE":0,"CLASSIFICATION_TYPE":"U","NORAD_CAT_ID":39260,"ELEMENT_SET_NO":999,"REV_AT_EPOCH":64452,"BSTAR":0.00010509622,"MEAN_MOTION_DOT":1.65e-6,"MEAN_MOTION_DDOT":0},{"OBJECT_NAME":"FENGYUN 1C DEB","OBJECT_ID":"1999-025WH","EPOCH":"2026-03-09T17:17:34.160928","MEAN_MOTION":13.8995436,"ECCENTRICITY":0.01126622,"INCLINATION":99.4708,"RA_OF_ASC_NODE":114.0762,"ARG_OF_PERICENTER":110.3733,"MEAN_ANOMALY":15.3726,"EPHEMERIS_TYPE":0,"CLASSIFICATION_TYPE":"U","NORAD_CAT_ID":30224,"ELEMENT_SET_NO":999,"REV_AT_EPOCH":96949,"BSTAR":0.00041901208,"MEAN_MOTION_DOT":4.98e-6,"MEAN_MOTION_DDOT":0}]
